0 WESTFORD NEEDLES
1 18688U 63014DM  13285.40926209 -.00000012  00000-0 -71812-2 0  2445
2 18688 087.3247 282.3918 0013622 145.5608 012.4227 08.65092276718964
0 WESTFORD NEEDLES
1 18688U 63014DM  13288.41504763 -.00000032  00000-0 -16350-1 0  2454
2 18688 087.3236 282.1048 0013649 142.5684 013.3838 08.65092390719229
0 WESTFORD NEEDLES
1 18688U 63014DM  13292.46986888 -.00000004  00000-0 -33271-2 0  2468
2 18688 087.3249 281.7167 0013706 138.5506 041.3573 08.65091922719577
